{
  "type": "FeatureCollection",
  "features": [
    {
      "type": "Feature",
      "properties": {
        "norad_id": 67012,
        "name": "STARLINK-36175",
        "group": "last-30-days",
        "lat": 58.443174012330196,
        "lon": 86.91449634400702,
        "alt_km": 285.32918316086943,
        "timestamp": "2025-12-19T18:58:40.330535+00:00",
        "meta_object_name": "STARLINK-36175",
        "meta_object_id": "2025-293K",
        "meta_epoch": "2025-12-19T06:27:15.231456",
        "meta_mean_motion": 15.94877536,
        "meta_eccentricity": 0.0003035,
        "meta_inclination": 69.995,
        "meta_ra_of_asc_node": 304.822,
        "meta_arg_of_pericenter": 285.009,
        "meta_mean_anomaly": 75.0782,
        "meta_ephemeris_type": 0,
        "meta_classification_type": "U",
        "meta_norad_cat_id": 67012,
        "meta_element_set_no": 999,
        "meta_rev_at_epoch": 265,
        "meta_bstar": -0.00088596101,
        "meta_mean_motion_dot": -0.0034391,
        "meta_mean_motion_ddot": 4.3936608e-05,
        "tle_line1": "1 67012U 25293K   25353.26892629 -.00343910  43937-4 -88596-3 0  9990",
        "tle_line2": "2 67012  69.9950 304.8220 0003035 285.0090  75.0782 15.94877536  2657"
      },
      "geometry": {
        "type": "Point",
        "coordinates": [
          86.91449634400702,
          58.443174012330196
        ]
      }
    },
    {
      "type": "Feature",
      "properties": {
        "norad_id": 67013,
        "name": "STARLINK-35856",
        "group": "last-30-days",
        "lat": 57.54485422394376,
        "lon": 88.34556314638603,
        "alt_km": 288.5577201632623,
        "timestamp": "2025-12-19T18:58:40.330547+00:00",
        "meta_object_name": "STARLINK-35856",
        "meta_object_id": "2025-293L",
        "meta_epoch": "2025-12-19T06:00:02.000160",
        "meta_mean_motion": 15.94703073,
        "meta_eccentricity": 0.00039175,
        "meta_inclination": 69.9945,
        "meta_ra_of_asc_node": 304.8734,
        "meta_arg_of_pericenter": 270.3283,
        "meta_mean_anomaly": 343.6128,
        "meta_ephemeris_type": 0,
        "meta_classification_type": "U",
        "meta_norad_cat_id": 67013,
        "meta_element_set_no": 999,
        "meta_rev_at_epoch": 130,
        "meta_bstar": -0.002939541,
        "meta_mean_motion_dot": -0.01123213,
        "meta_mean_motion_ddot": 0.00038498793,
        "tle_line1": "1 67013U 25293L   25353.25002315 -.01123213  38499-3 -29395-2 0  9995",
        "tle_line2": "2 67013  69.9945 304.8734 0003917 270.3283 343.6128 15.94703073  1305"
      },
      "geometry": {
        "type": "Point",
        "coordinates": [
          88.34556314638603,
          57.54485422394376
        ]
      }
    },
    {
      "type": "Feature",
      "properties": {
        "norad_id": 67014,
        "name": "STARLINK-36207",
        "group": "last-30-days",
        "lat": 55.73670316799429,
        "lon": 90.96310314573266,
        "alt_km": 288.6315556715572,
        "timestamp": "2025-12-19T18:58:40.330557+00:00",
        "meta_object_name": "STARLINK-36207",
        "meta_object_id": "2025-293M",
        "meta_epoch": "2025-12-19T06:00:02.000160",
        "meta_mean_motion": 15.94765841,
        "meta_eccentricity": 0.00039356,
        "meta_inclination": 69.995,
        "meta_ra_of_asc_node": 304.871,
        "meta_arg_of_pericenter": 272.4321,
        "meta_mean_anomaly": 343.6994,
        "meta_ephemeris_type": 0,
        "meta_classification_type": "U",
        "meta_norad_cat_id": 67014,
        "meta_element_set_no": 999,
        "meta_rev_at_epoch": 130,
        "meta_bstar": -0.0029419705,
        "meta_mean_motion_dot": -0.0112787,
        "meta_mean_motion_ddot": 0.00038818957,
        "tle_line1": "1 67014U 25293M   25353.25002315 -.01127870  38819-3 -29420-2 0  9994",
        "tle_line2": "2 67014  69.9950 304.8710 0003935 272.4321 343.6994 15.94765841  1304"
      },
      "geometry": {
        "type": "Point",
        "coordinates": [
          90.96310314573266,
          55.73670316799429
        ]
      }
    },
    {
      "type": "Feature",
      "properties": {
        "norad_id": 67015,
        "name": "STARLINK-36093",
        "group": "last-30-days",
        "lat": 52.02648577518216,
        "lon": 95.46428792440969,
        "alt_km": 288.6500422741083,
        "timestamp": "2025-12-19T18:58:40.330567+00:00",
        "meta_object_name": "STARLINK-36093",
        "meta_object_id": "2025-293N",
        "meta_epoch": "2025-12-19T06:00:02.000160",
        "meta_mean_motion": 15.94880744,
        "meta_eccentricity": 0.00039516,
        "meta_inclination": 69.9946,
        "meta_ra_of_asc_node": 304.8656,
        "meta_arg_of_pericenter": 270.0507,
        "meta_mean_anomaly": 350.4151,
        "meta_ephemeris_type": 0,
        "meta_classification_type": "U",
        "meta_norad_cat_id": 67015,
        "meta_element_set_no": 999,
        "meta_rev_at_epoch": 130,
        "meta_bstar": -0.0029233909,
        "meta_mean_motion_dot": -0.01127642,
        "meta_mean_motion_ddot": 0.00038850589,
        "tle_line1": "1 67015U 25293N   25353.25002315 -.01127642  38851-3 -29234-2 0  9991",
        "tle_line2": "2 67015  69.9946 304.8656 0003951 270.0507 350.4151 15.94880744  1308"
      },
      "geometry": {
        "type": "Point",
        "coordinates": [
          95.46428792440969,
          52.02648577518216
        ]
      }
    },
    {
      "type": "Feature",
      "properties": {
        "norad_id": 67016,
        "name": "STARLINK-36120",
        "group": "last-30-days",
        "lat": 54.0197603779898,
        "lon": 93.17146865849865,
        "alt_km": 288.578829359707,
        "timestamp": "2025-12-19T18:58:40.330580+00:00",
        "meta_object_name": "STARLINK-36120",
        "meta_object_id": "2025-293P",
        "meta_epoch": "2025-12-19T06:00:02.000160",
        "meta_mean_motion": 15.94813825,
        "meta_eccentricity": 0.00039133,
        "meta_inclination": 69.9948,
        "meta_ra_of_asc_node": 304.8684,
        "meta_arg_of_pericenter": 269.6957,
        "meta_mean_anomaly": 348.4719,
        "meta_ephemeris_type": 0,
        "meta_classification_type": "U",
        "meta_norad_cat_id": 67016,
        "meta_element_set_no": 999,
        "meta_rev_at_epoch": 130,
        "meta_bstar": -0.0029173849,
        "meta_mean_motion_dot": -0.01121356,
        "meta_mean_motion_ddot": 0.00038425356,
        "tle_line1": "1 67016U 25293P   25353.25002315 -.01121356  38425-3 -29174-2 0  9998",
        "tle_line2": "2 67016  69.9948 304.8684 0003913 269.6957 348.4719 15.94813825  1306"
      },
      "geometry": {
        "type": "Point",
        "coordinates": [
          93.17146865849865,
          54.0197603779898
        ]
      }
    },
    {
      "type": "Feature",
      "properties": {
        "norad_id": 67017,
        "name": "STARLINK-35498",
        "group": "last-30-days",
        "lat": 50.135891517498585,
        "lon": 97.4184096607762,
        "alt_km": 288.72573845899024,
        "timestamp": "2025-12-19T18:58:40.330590+00:00",
        "meta_object_name": "STARLINK-35498",
        "meta_object_id": "2025-293Q",
        "meta_epoch": "2025-12-19T06:00:02.000160",
        "meta_mean_motion": 15.94949617,
        "meta_eccentricity": 0.00039444,
        "meta_inclination": 69.9943,
        "meta_ra_of_asc_node": 304.863,
        "meta_arg_of_pericenter": 271.0559,
        "meta_mean_anomaly": 351.5421,
        "meta_ephemeris_type": 0,
        "meta_classification_type": "U",
        "meta_norad_cat_id": 67017,
        "meta_element_set_no": 999,
        "meta_rev_at_epoch": 130,
        "meta_bstar": -0.0029493915,
        "meta_mean_motion_dot": -0.01141727,
        "meta_mean_motion_ddot": 0.00039779052,
        "tle_line1": "1 67017U 25293Q   25353.25002315 -.01141727  39779-3 -29494-2 0  9991",
        "tle_line2": "2 67017  69.9943 304.8630 0003944 271.0559 351.5421 15.94949617  1306"
      },
      "geometry": {
        "type": "Point",
        "coordinates": [
          97.4184096607762,
          50.135891517498585
        ]
      }
    },
    {
      "type": "Feature",
      "properties": {
        "norad_id": 67018,
        "name": "STARLINK-36106",
        "group": "last-30-days",
        "lat": 48.19720575014127,
        "lon": 99.2388173042667,
        "alt_km": 288.84801528929347,
        "timestamp": "2025-12-19T18:58:40.330600+00:00",
        "meta_object_name": "STARLINK-36106",
        "meta_object_id": "2025-293R",
        "meta_epoch": "2025-12-19T06:00:02.000160",
        "meta_mean_motion": 15.95006167,
        "meta_eccentricity": 0.00040092,
        "meta_inclination": 69.9944,
        "meta_ra_of_asc_node": 304.8601,
        "meta_arg_of_pericenter": 272.4859,
        "meta_mean_anomaly": 352.27,
        "meta_ephemeris_type": 0,
        "meta_classification_type": "U",
        "meta_norad_cat_id": 67018,
        "meta_element_set_no": 999,
        "meta_rev_at_epoch": 130,
        "meta_bstar": -0.0029274604,
        "meta_mean_motion_dot": -0.0113674,
        "meta_mean_motion_ddot": 0.00039482144,
        "tle_line1": "1 67018U 25293R   25353.25002315 -.01136740  39482-3 -29275-2 0  9999",
        "tle_line2": "2 67018  69.9944 304.8601 0004009 272.4859 352.2700 15.95006167  1300"
      },
      "geometry": {
        "type": "Point",
        "coordinates": [
          99.2388173042667,
          48.19720575014127
        ]
      }
    }
  ]
}